ONEWEB-0328             
1 49197U 21083M   24342.51557287 -.00000299  00000+0 -85369-3 0  9994
2 49197  87.8923  70.9367 0001683 109.0898 251.0413 13.13468680157823
ONEWEB-0331             
1 49198U 21083N   24342.59432268  .00000053  00000+0  10247-3 0  9993
2 49198  87.9110  86.2017 0001891 109.3583 250.7754 13.18686960156652
ONEWEB-0333             
1 49199U 21083P   24342.51080742 -.00000257  00000+0 -73956-3 0  9996
2 49199  87.8937  70.9829 0001580 103.2267 256.9039 13.13469232157838
ONEWEB-0334             
1 49200U 21083Q   24342.52505619  .00000035  00000+0  54844-4 0  9993
2 49200  87.9258  25.2186 0001670  65.8883 294.2425 13.20771355163318
ONEWEB-0335             
1 49201U 21083R   24342.58221221 -.00000159  00000+0 -47070-3 0  9995
2 49201  87.8937  70.9571 0002011 105.5482 254.5869 13.13467880157854
ONEWEB-0336             
1 49202U 21083S   24342.55206508  .00000472  00000+0  12566-2 0  9991
2 49202  87.8935  70.9579 0001822  99.7033 260.4302 13.13469016157846
ONEWEB-0337             
1 49203U 21083T   24342.48527973  .00000268  00000+0  69841-3 0  9998
2 49203  87.8938  70.9699 0001780 109.6373 250.4948 13.13468359157837
ONEWEB-0338             
1 49204U 21083U   24342.53214918  .00000109  00000+0  23659-3 0  9998
2 49204  87.9265  25.2109 0001544  88.8492 271.2818 13.20773399163339
ONEWEB-0339             
1 49205U 21083V   24342.49651951  .00000040  00000+0  73471-4 0  9998
2 49205  87.8934  70.9595 0001621 108.6873 251.4433 13.13469847157819
ONEWEB-0340             
1 49206U 21083W   24342.58009375  .00000103  00000+0  22831-3 0  9999
2 49206  87.9111  86.2004 0001757 106.3347 253.7978 13.18687565156614
ONEWEB-0341             
1 49207U 21083X   24342.58799091  .00000011  00000+0 -40122-5 0  9995
2 49207  87.9110  86.2108 0001484 127.9220 232.2046 13.18688531156639
ONEWEB-0342             
1 49208U 21083Y   24342.53846156  .00000092  00000+0  19377-3 0  9990
2 49208  87.9254  25.2051 0001750  94.0889 266.0444 13.20770810163304
ONEWEB-0343             
1 49209U 21083Z   24342.58324485  .00000082  00000+0  17401-3 0  9997
2 49209  87.9105  86.2086 0001141 124.1402 235.9839 13.18689376156684
ONEWEB-0344             
1 49210U 21083AA  24342.53937032  .00000268  00000+0  69951-3 0  9995
2 49210  87.8933  70.9726 0001763 119.2788 240.8517 13.13470898157824
ONEWEB-0345             
1 49211U 21083AB  24342.55683298  .00000359  00000+0  94786-3 0  9995
2 49211  87.8936  70.9394 0001828 121.8746 238.2561 13.13470475157836
ONEWEB-0346             
1 49212U 21083AC  24342.59274151  .00000039  00000+0  66172-4 0  9998
2 49212  87.9111  86.2190 0002029 105.5490 254.5867 13.18686394156626
ONEWEB-0348             
1 49213U 21083AD  24342.52899813  .00000112  00000+0  24357-3 0  9990
2 49213  87.9264  25.1956 0002319 110.3099 249.8284 13.20774036163339
ONEWEB-0350             
1 49214U 21083AE  24342.56634942  .00000198  00000+0  50676-3 0  9992
2 49214  87.8935  70.9289 0001781 116.2795 243.8517 13.13468117157867
ONEWEB-0351             
1 49215U 21083AF  24342.52254404 -.00000066  00000+0 -19313-3 0  9999
2 49215  87.9258  25.1886 0000971  84.3151 275.8093 13.20771616163290
ONEWEB-0352             
1 49216U 21083AG  24342.54730306  .00000419  00000+0  11126-2 0  9995
2 49216  87.8934  70.9685 0001210 106.6799 253.4463 13.13469615157953
ONEWEB-0354             
1 49217U 21083AH  24342.54793363  .00000111  00000+0  24144-3 0  9992
2 49217  87.9264  25.1748 0001866 107.4424 252.6913 13.20772000163337
ONEWEB-0355             
1 49218U 21083AJ  24342.50127816 -.00000139  00000+0 -41566-3 0  9992
2 49218  87.8940  70.9767 0001511 109.5662 250.5631 13.13475799157829
ONEWEB-0357             
1 49219U 21083AK  24342.54477343  .00000088  00000+0  18369-3 0  9996
2 49219  87.9262  25.1879 0001617  98.2265 261.9052 13.20771621163331
ONEWEB-0332             
1 49279U 21090A   24342.56926561 -.00000065  00000+0 -21100-3 0  9997
2 49279  87.9019  40.4084 0001668  89.9570 270.1751 13.14504385154452
ONEWEB-0347             
1 49280U 21090B   24342.53531097  .00000165  00000+0  37419-3 0  9991
2 49280  87.9264  25.1930 0001894  83.6986 276.4363 13.20772584157567
ONEWEB-0349             
1 49281U 21090C   24342.56685880  .00000030  00000+0  42723-4 0  9991
2 49281  87.9265  25.1894 0001849  94.7261 265.4084 13.20770889156357
ONEWEB-0353             
1 49282U 21090D   24342.56134966  .00000046  00000+0  89660-4 0  9994
2 49282  87.9016  40.3960 0001705  90.7866 269.3459 13.14504463154457
ONEWEB-0356             
1 49283U 21090E   24342.56526490 -.00002817  00000+0 -69600-2 0  9992
2 49283  87.9266  25.1826 0002924  93.1729 266.9739 13.20784826156351
ONEWEB-0358             
1 49284U 21090F   24342.51951769  .00000081  00000+0  16691-3 0  9991
2 49284  87.9264  25.1800 0002073 101.3747 258.7619 13.20773587157077
ONEWEB-0359             
1 49285U 21090G   24342.51636881 -.00000017  00000+0 -74271-4 0  9997
2 49285  87.9264  25.1961 0001839 111.1759 248.9571 13.20772570157054
ONEWEB-0360             
1 49286U 21090H   24342.50689452  .00000015  00000+0  45749-5 0  9994
2 49286  87.9264  25.2033 0001806 102.6525 257.4810 13.20771650156368
ONEWEB-0361             
1 49287U 21090J   24342.56371731  .00000032  00000+0  46094-4 0  9991
2 49287  87.9263  25.1868 0001979  94.9135 265.2224 13.20771748156829
ONEWEB-0362             
1 49288U 21090K   24342.22706790 -.00000094  00000+0 -26602-3 0  9994
2 49288  87.9189  55.7373 0001524 105.7676 254.3625 13.19726243153452
ONEWEB-0363             
1 49289U 21090L   24342.50374501  .00000016  00000+0  66079-5 0  9993
2 49289  87.9266  25.1938 0002343  98.6441 261.4958 13.20772066156825
ONEWEB-0364             
1 49290U 21090M   24342.54162310  .00000110  00000+0  23803-3 0  9993
2 49290  87.9265  25.2136 0001967  94.7779 265.3579 13.20771774157962
ONEWEB-0365             
1 49291U 21090N   24342.46399569  .00000096  00000+0  20848-3 0  9992
2 49291  87.9182  55.6591 0001664  99.0784 261.0537 13.19725894152996
ONEWEB-0366             
1 49292U 21090P   24342.55817067  .00000134  00000+0  32765-3 0  9995
2 49292  87.9023  40.4075 0001899  98.0147 262.1198 13.14500890154430
ONEWEB-0367             
1 49293U 21090Q   24342.50215461  .00000040  00000+0  67521-4 0  9996
2 49293  87.9265  25.1889 0001792  94.7779 265.3559 13.20770298156344
ONEWEB-0368             
1 49294U 21090R   24342.55109943  .00000134  00000+0  29712-3 0  9992
2 49294  87.9265  25.2109 0002347  77.2233 282.9163 13.20771872157503
ONEWEB-0369             
1 49295U 21090S   24342.53507795  .00000081  00000+0  17093-3 0  9998
2 49295  87.9190  55.6599 0001716  98.5963 261.5364 13.19726205152998
ONEWEB-0370             
1 49296U 21090T   24342.51163419 -.00000009  00000+0 -53144-4 0  9998
2 49296  87.9263  25.1920 0001640 108.8490 251.2822 13.20772289156383
ONEWEB-0371             
1 49297U 21090U   24342.46714384 -.00000567  00000+0 -14483-2 0  9996
2 49297  87.9188  55.6638 0001701  99.2333 260.8992 13.19728241153020
ONEWEB-0372             
1 49298U 21090V   24342.57619867  .00000028  00000+0  37645-4 0  9996
2 49298  87.9265  25.1880 0001769  93.4105 266.7231 13.20773764156368
ONEWEB-0373             
1 49299U 21090W   24342.52741651  .00000043  00000+0  73889-4 0  9996
2 49299  87.9262  25.2113 0002118  96.1562 263.9812 13.20771435157540
ONEWEB-0374             
1 49300U 21090X   24342.54549935  .00000245  00000+0  62686-3 0  9998
2 49300  87.9015  40.3927 0002279  92.2939 267.8452 13.14504483154431
ONEWEB-0375             
1 49301U 21090Y   24342.51479075  .00000025  00000+0  30005-4 0  9990
2 49301  87.9263  25.1909 0002514 101.0886 259.0530 13.20771373157041
ONEWEB-0376             
1 49302U 21090Z   24342.54139696  .00000154  00000+0  35280-3 0  9998
2 49302  87.9180  55.6454 0001580  94.4993 265.6320 13.19727054153039
ONEWEB-0377             
1 49303U 21090AA  24342.57646963  .00000028  00000+0  36520-4 0  9991
2 49303  87.9264  25.1709 0001869 105.4563 254.6777 13.20769048157044
ONEWEB-0378             
1 49304U 21090AB  24342.52281867  .00000104  00000+0  22281-3 0  9998
2 49304  87.9265  25.1867 0001964  97.2806 262.8551 13.20772506156307
ONEWEB-0379             
1 49305U 21090AC  24342.54071911  .00000236  00000+0  60213-3 0  9991
2 49305  87.9017  40.3973 0001771  98.4801 261.6530 13.14506608154431
ONEWEB-0380             
1 49306U 21090AD  24342.46242601  .00000386  00000+0  93176-3 0  9999
2 49306  87.9194  55.6773 0001690 105.2195 254.9124 13.19722130152996
ONEWEB-0381             
1 49307U 21090AE  24342.57318818  .00000011  00000+0 -56756-5 0  9997
2 49307  87.9264  25.1788 0001949 102.8029 257.3322 13.20770919156350
ONEWEB-0382             
1 49308U 21090AF  24342.56056626  .00000076  00000+0  15406-3 0  9998
2 49308  87.9264  25.1771 0002264  94.1409 265.9983 13.20772332156347
ONEWEB-0383             
1 49309U 21090AG  24342.53439201  .00000225  00000+0  57217-3 0  9992
2 49309  87.9013  40.3831 0001938  95.5840 264.5511 13.14503294154462
ONEWEB-0384             
1 49310U 21090AH  24342.55740431  .00000153  00000+0  34426-3 0  9993
2 49310  87.9266  25.1918 0002379  93.0701 267.0704 13.20770999156357
ONEWEB-0385             
1 49311U 21090AJ  24342.55267020  .00000060  00000+0  11681-3 0  9997
2 49311  87.9265  25.1937 0002005  95.6037 264.5325 13.20771071156324
ONEWEB-0386             
1 49312U 21090AK  24342.57001699  .00000021  00000+0  18637-4 0  9994
2 49312  87.9257  25.1735 0002158  94.0264 266.1116 13.20773655156344
ONEWEB-0387             
1 49313U 21090AL  24342.55424396  .00000086  00000+0  18010-3 0  9991
2 49313  87.9266  25.2504 0002145 103.7471 256.3901 13.20771178156345
ONEWEB-0388             
1 49314U 21090AM  24342.45767751  .00000126  00000+0  28349-3 0  9997
2 49314  87.9190  55.6820 0001916  99.4384 260.6965 13.19725201152987
